ONEWEB-0395             
1 50475U 21132G   25028.69279700  .00000439  00000+0  12015-2 0  9993
2 50475  87.8901 121.6484 0001853  94.3283 265.8057 13.11419188150868
ONEWEB-0396             
1 50476U 21132H   25028.36105960  .00000069  00000+0  14285-3 0  9995
2 50476  87.9066  75.8728 0001717  94.5942 265.5386 13.18685598155107
ONEWEB-0397             
1 50477U 21132J   25028.37529290  .00000065  00000+0  13254-3 0  9994
2 50477  87.9066  75.8713 0001640  99.4644 260.6673 13.18686425155082
ONEWEB-0398             
1 50478U 21132K   25028.27908831 -.00000453  00000+0 -13141-2 0  9993
2 50478  87.8896 121.7006 0002179 100.8084 259.3289 13.11417813149438
ONEWEB-0399             
1 50479U 21132L   25028.49441474 -.00000100  00000+0 -31854-3 0  9994
2 50479  87.8898 121.6789 0001389 103.9779 256.1504 13.11416112149453
ONEWEB-0400             
1 50480U 21132M   25028.50649209  .00000037  00000+0  61727-4 0  9994
2 50480  87.9063  75.8404 0002076  96.8328 263.3040 13.18685479155091
ONEWEB-0401             
1 50481U 21132N   25028.39742053  .00000109  00000+0  24459-3 0  9993
2 50481  87.9062  75.8563 0001664 103.4519 256.6799 13.18684576156360
ONEWEB-0402             
1 50482U 21132P   25028.36264069  .00000056  00000+0  10841-3 0  9998
2 50482  87.9061  75.8607 0001392 114.9136 245.2141 13.18685201155101
